IRIDIUM 112             
1 41925U 17003J   24111.37718956  .00001076  00000+0  37701-3 0  9991
2 41925  86.3964  57.5252 0002104  88.5678 271.5759 14.34216307380350
IRIDIUM 111             
1 41926U 17003K   24111.78311928  .00000484  00000+0  16574-3 0  9992
2 41926  86.3975  57.4095 0002528  85.5987 274.5498 14.34222935380398
IRIDIUM 123             
1 42804U 17039B   24111.59526238  .00000323  00000+0  10831-3 0  9990
2 42804  86.3953 322.7916 0002335  87.3825 272.7638 14.34219446357064
IRIDIUM 120             
1 42805U 17039C   24111.89628651  .00000079  00000+0  21321-4 0  9991
2 42805  86.3909 291.0325 0002172  85.3223 274.8221 14.34218644358338
IRIDIUM 115             
1 42806U 17039D   24111.86690015  .00000493  00000+0  14062-3 0  9995
2 42806  86.4447 291.0612 0002356  93.0945 267.0526 14.43280045360707
